ONEWEB-0389             
1 50469U 21132A   24338.41011396  .00000024  00000+0  29623-4 0  9999
2 50469  87.9088 117.5842 0001837 106.3668 253.7666 13.17650988144230
ONEWEB-0390             
1 50470U 21132B   24338.79146350  .00000083  00000+0  18008-3 0  9990
2 50470  87.9090 117.5157 0001372 109.8846 250.2433 13.17648297145576
ONEWEB-0391             
1 50471U 21132C   24338.41348370  .00000020  00000+0  17878-4 0  9992
2 50471  87.9097 117.5877 0002201 121.9701 238.1645 13.17650303144233
ONEWEB-0392             
1 50472U 21132D   24338.44386122  .00000070  00000+0  14672-3 0  9996
2 50472  87.9082 117.5581 0001930 110.0089 250.1251 13.17650229144274
ONEWEB-0393             
1 50473U 21132E   24338.34106430  .00000055  00000+0  10943-3 0  9998
2 50473  87.9092 117.5719 0001702 102.6436 257.4886 13.17649272144257
ONEWEB-0394             
1 50474U 21132F   24338.82577704  .00001146  00000+0  28725-2 0  9996
2 50474  87.9104  86.9458 0001803 104.0983 256.0350 13.18697320149014
ONEWEB-0395             
1 50475U 21132G   24338.46209096  .00006485  00000+0  18258-1 0  9993
2 50475  87.8883 132.8162 0001446 103.5432 256.5857 13.11379996142229
ONEWEB-0396             
1 50476U 21132H   24338.59183350  .00000143  00000+0  33088-3 0  9997
2 50476  87.9111  86.9974 0001835 102.9435 257.1902 13.18688075147752
ONEWEB-0397             
1 50477U 21132J   24338.60603279 -.00002621  00000+0 -66810-2 0  9990
2 50477  87.9074  86.9942 0001775  98.0742 262.0592 13.18705075147733
ONEWEB-0398             
1 50478U 21132K   24338.81134943  .00000540  00000+0  14882-2 0  9999
2 50478  87.8880 132.7198 0001147 111.0968 249.0282 13.11415221143449
ONEWEB-0399             
1 50479U 21132L   24338.49258697  .00000035  00000+0  64321-4 0  9991
2 50479  87.8882 132.8030 0001882  93.3681 266.7662 13.11417321142112
ONEWEB-0400             
1 50480U 21132M   24338.81314183  .00000087  00000+0  18783-3 0  9999
2 50480  87.9105  86.9518 0001463 108.8124 251.3167 13.18684749149037
ONEWEB-0401             
1 50481U 21132N   24338.55231685  .00000093  00000+0  20252-3 0  9997
2 50481  87.9100  86.9985 0001750  94.4158 265.7174 13.18685358147725
ONEWEB-0402             
1 50482U 21132P   24338.82105276  .00000025  00000+0  31294-4 0  9998
2 50482  87.9106  86.9426 0001949  83.7643 276.3711 13.18686247149064
ONEWEB-0403             
1 50483U 21132Q   24338.76887125 -.00000017  00000+0 -76571-4 0  9992
2 50483  87.9109  86.9638 0001725 106.3295 253.8027 13.18686107149010
ONEWEB-0404             
1 50484U 21132R   24338.47394285 -.00000365  00000+0 -10643-2 0  9993
2 50484  87.8895 132.7922 0001760 104.1818 255.9505 13.11418117142209
ONEWEB-0405             
1 50485U 21132S   24338.55705684  .00000092  00000+0  20125-3 0  9994
2 50485  87.9108  86.9959 0001844  93.8380 266.2963 13.18689033148101
ONEWEB-0406             
1 50486U 21132T   24338.54599122  .00000082  00000+0  17508-3 0  9992
2 50486  87.9112  87.0136 0001865 124.4455 235.6854 13.18684803147730
ONEWEB-0407             
1 50487U 21132U   24338.53966905  .00000090  00000+0  19476-3 0  9994
2 50487  87.9108  87.0087 0001799  99.0197 261.1139 13.18685464147674
ONEWEB-0409             
1 50488U 21132V   24338.47222771 -.00000427  00000+0 -12399-2 0  9996
2 50488  87.8883 132.7744 0001536 108.4039 251.7256 13.11415008142095
ONEWEB-0412             
1 50489U 21132W   24338.60448156  .00000091  00000+0  19750-3 0  9993
2 50489  87.9109  87.0037 0001843  89.9545 270.1798 13.18685902147776
ONEWEB-0413             
1 50490U 21132X   24338.60922006  .00000050  00000+0  94719-4 0  9990
2 50490  87.9107  87.0150 0001688  89.5678 270.5648 13.18685942147718
ONEWEB-0414             
1 50491U 21132Y   24338.59500217  .00000011  00000+0 -60776-5 0  9990
2 50491  87.9105  86.9897 0001885  97.3943 262.7403 13.18686188147742
ONEWEB-0417             
1 50492U 21132Z   24338.60290960  .00000048  00000+0  88232-4 0  9999
2 50492  87.9112  87.0028 0001704 108.9110 251.2207 13.18687516147723
ONEWEB-0418             
1 50493U 21132AA  24338.53638057  .00000178  00000+0  41782-3 0  9997
2 50493  87.9107  87.0125 0002006 113.9522 246.1820 13.18687134147770
ONEWEB-0419             
1 50494U 21132AB  24338.78151780  .00000058  00000+0  11370-3 0  9995
2 50494  87.9104  86.9747 0001559 116.5076 243.6216 13.18684775149019
ONEWEB-0420             
1 50495U 21132AC  24338.59657129  .00000083  00000+0  17679-3 0  9999
2 50495  87.9107  87.0206 0001481  92.5978 267.5324 13.18688320147690
ONEWEB-0421             
1 50496U 21132AD  24338.59024993  .00000063  00000+0  12693-3 0  9996
2 50496  87.9112  87.0005 0001908  96.4664 263.6686 13.18688330147737
ONEWEB-0424             
1 50497U 21132AE  24338.77678649  .00000053  00000+0  10106-3 0  9996
2 50497  87.9109  86.9611 0001400 119.9444 240.1827 13.18685444149067
ONEWEB-0426             
1 50498U 21132AF  24338.81472180  .00000072  00000+0  15063-3 0  9992
2 50498  87.9104  86.9643 0002254 106.9585 253.1794 13.18687619149027
ONEWEB-0427             
1 50499U 21132AG  24338.54757133  .00000089  00000+0  19344-3 0  9991
2 50499  87.9113  86.9970 0001828 109.9851 250.1478 13.18685506147720
ONEWEB-0429             
1 50500U 21132AH  24338.76254723  .00000854  00000+0  21332-2 0  9994
2 50500  87.9107  86.9707 0001249  97.9700 262.1573 13.18691355149012
ONEWEB-0430             
1 50501U 21132AJ  24338.82737311  .00000052  00000+0  98002-4 0  9991
2 50501  87.9110  86.9567 0001215 109.9683 250.1580 13.18688421149068
ONEWEB-0432             
1 50502U 21132AK  24338.55547383  .00000106  00000+0  23676-3 0  9994
2 50502  87.9111  87.0018 0001933 136.2230 223.9055 13.18688660147698
ONEWEB-0440             
1 50503U 21132AL  24338.54283702  .00000070  00000+0  14354-3 0  9999
2 50503  87.9111  86.9981 0001796  88.4544 271.6793 13.18687722147685
ONEWEB-0450             
1 50504U 21132AM  24338.76424630 -.00000342  00000+0 -89934-3 0  9991
2 50504  87.9110  86.9825 0001247  94.3208 265.8066 13.18683225149039
ONEWEB-0410             
1 51622U 22012A   24338.80835756 -.00000075  00000+0 -22685-3 0  9994
2 51622  87.9086 117.4812 0002903 113.6974 246.4462 13.17650007141199
ONEWEB-0411             
1 51623U 22012B   24338.54896937  .00000673  00000+0  18915-2 0  9996
2 51623  87.8885 147.9138 0000883 104.1341 255.9884 13.10372055135860
ONEWEB-0415             
1 51624U 22012C   24338.54565358  .00002144  00000+0  61040-2 0  9999
2 51624  87.8899 147.9312 0001255  98.9574 261.1696 13.10378985135860
ONEWEB-0416             
1 51625U 22012D   24338.48092448  .00000336  00000+0  92638-3 0  9997
2 51625  87.8886 147.9463 0001428  93.5440 266.5850 13.10370702135892
ONEWEB-0422             
1 51626U 22012E   24338.43879079  .00000052  00000+0  10125-3 0  9992
2 51626  87.9087 117.5582 0001407  65.6332 294.4946 13.17647495139960
ONEWEB-0423             
1 51627U 22012F   24338.43204468  .00000052  00000+0  10009-3 0  9998
2 51627  87.9088 117.5630 0001631  94.3631 265.7686 13.17651009139852
ONEWEB-0425             
1 51628U 22012G   24338.49086466 -.00000135  00000+0 -42266-3 0  9995
2 51628  87.8882 147.9222 0001864  94.6131 265.5209 13.10373292135891
ONEWEB-0428             
1 51629U 22012H   24338.54730940  .00000773  00000+0  21771-2 0  9998
2 51629  87.8884 147.9290 0001294  84.2510 275.8765 13.10372338135860
ONEWEB-0431             
1 51630U 22012J   24338.51727648 -.00000365  00000+0 -10810-2 0  9999
2 51630  87.8884 147.9211 0000807  81.8032 278.3186 13.10376348135912
ONEWEB-0434             
1 51631U 22012K   24338.49417134 -.00000352  00000+0 -10437-2 0  9994
2 51631  87.8884 147.9515 0001545  85.2774 274.8530 13.10371891135890
ONEWEB-0435             
1 51632U 22012L   24338.50247152 -.00000628  00000+0 -18345-2 0  9990
2 51632  87.8885 147.9416 0001391  72.3507 287.7772 13.10371344135885
ONEWEB-0436             
1 51633U 22012M   24338.42361294  .00000008  00000+0 -11655-4 0  9996
2 51633  87.9082 117.5619 0001305  92.4551 267.6730 13.17649292139838
ONEWEB-0438             
1 51634U 22012N   24338.56223969  .00000101  00000+0  25337-3 0  9992
2 51634  87.8886 147.9306 0001669  94.7347 265.3971 13.10367782135923
ONEWEB-0439             
1 51635U 22012P   24338.56556307 -.00000055  00000+0 -19295-3 0  9994
2 51635  87.8886 147.9162 0001455  88.9096 271.2198 13.10372470135908
ONEWEB-0442             
1 51636U 22012Q   24338.79569418  .00000033  00000+0  52887-4 0  9996
2 51636  87.9091 117.5283 0001994 114.4047 245.7293 13.17650947141166
ONEWEB-0443             
1 51637U 22012R   24338.43541869  .00000030  00000+0  44147-4 0  9995
2 51637  87.9092 117.6113 0001864  93.1613 266.9732 13.17650501139873
ONEWEB-0444             
1 51638U 22012S   24338.55560671  .00000492  00000+0  13740-2 0  9996
2 51638  87.8880 147.9312 0001531  84.8106 275.3196 13.10370855135913
ONEWEB-0445             
1 51639U 22012T   24338.50081180 -.00000505  00000+0 -14818-2 0  9999
2 51639  87.8878 147.9062 0001498 100.3585 259.7712 13.10371955135912
ONEWEB-0446             
1 51640U 22012U   24338.47759206  .00000520  00000+0  14543-2 0  9998
2 51640  87.8886 147.9507 0001360 102.3925 257.7354 13.10371124135890
ONEWEB-0448             
1 51641U 22012V   24338.55893423 -.00000548  00000+0 -16077-2 0  9994
2 51641  87.8879 147.9347 0001606  86.9013 273.2298 13.10364013135870
ONEWEB-0449             
1 51642U 22012W   24338.56390183 -.00000015  00000+0 -79665-4 0  9994
2 51642  87.8878 147.9197 0001695  95.4721 264.6600 13.10369698135888
ONEWEB-0451             
1 51643U 22012X   24338.42023788  .00000117  00000+0  26847-3 0  9998
2 51643  87.9079 117.5564 0001624  96.3453 263.7864 13.17649514139812
ONEWEB-0452             
1 51644U 22012Y   24338.79823311  .00000060  00000+0  12128-3 0  9993
2 51644  87.9091 117.5318 0001921  95.0460 265.0891 13.17649071141173
